NORAD_CAT_ID,OBJECT_NAME,OBJECT_TYPE,EPOCH,MEAN_MOTION,ECCENTRICITY,INCLINATION,RA_OF_ASC_NODE,ARG_OF_PERICENTER,MEAN_ANOMALY,BSTAR,MEAN_MOTION_DOT,MEAN_MOTION_DDOT,TLE_LINE0,TLE_LINE1,TLE_LINE2,SEMIMAJOR_AXIS,PERIOD,APOGEE,PERIGEE,DECAYED
52271.0,STARLINK-3788,PAYLOAD,2024-07-10 14:23:25,15.08848606,8.8e-05,53.2161,314.4586,92.1504,267.9589,0.00094351,0.00014763,0.0,0 STARLINK-3788,1 52271U 22041L   24192.59959632  .00014763  00000-0  94351-3 0  9998,2 52271  53.2161 314.4586 0000880  92.1504 267.9589 15.08848606122710,6917.854,95.437,540.328,539.11,0.0
52271.0,STARLINK-3788,PAYLOAD,2024-07-11 14:14:12,15.08855936,7.86e-05,53.2154,309.9987,86.6986,273.4096,0.00090652,0.00014175,0.0,0 STARLINK-3788,1 52271U 22041L   24193.59319509  .00014175  00000-0  90652-3 0  9999,2 52271  53.2154 309.9987 0000786  86.6986 273.4096 15.08855936122868,6917.832,95.437,540.24,539.153,0.0
52271.0,STARLINK-3788,PAYLOAD,2024-07-12 12:29:36,15.088393,0.0001277,53.2158,305.836,90.8337,269.2801,1.7468e-05,-1e-07,0.0,0 STARLINK-3788,1 52271U 22041L   24194.52055582 -.00000010  00000-0  17468-4 0  9990,2 52271  53.2158 305.8360 0001277  90.8337 269.2801 15.08839300124221,6917.883,95.438,540.631,538.864,0.0
52271.0,STARLINK-3788,PAYLOAD,2024-07-12 14:04:59,15.08844681,0.0001199,53.2157,305.5383,91.0069,269.106,0.00019689,2.847e-05,0.0,0 STARLINK-3788,1 52271U 22041L   24194.58679568  .00002847  00000-0  19689-3 0  9997,2 52271  53.2157 305.5383 0001199  91.0069 269.1060 15.08844681123010,6917.866,95.437,540.561,538.902,0.0
52271.0,STARLINK-3788,PAYLOAD,2024-07-13 13:55:46,15.08840139,0.0001342,53.217,301.0766,95.7621,264.3524,0.00027516,4.094e-05,0.0,0 STARLINK-3788,1 52271U 22041L   24195.58039858  .00004094  00000-0  27516-3 0  9994,2 52271  53.2170 301.0766 0001342  95.7621 264.3524 15.08840139123168,6917.88,95.438,540.673,538.817,0.0
52271.0,STARLINK-3788,PAYLOAD,2024-07-13 23:28:04,15.08856864,0.0001208,53.2168,299.2906,94.0617,266.0513,0.00054551,8.408e-05,0.0,0 STARLINK-3788,1 52271U 22041L   24195.97783277  .00008408  00000-0  54551-3 0  9990,2 52271  53.2168 299.2906 0001208  94.0617 266.0513 15.08856864124448,6917.829,95.436,540.53,538.858,0.0
52271.0,STARLINK-3788,PAYLOAD,2024-07-14 13:46:33,15.08848991,0.0001353,53.2179,296.6196,92.6803,267.4344,0.00035882,5.429e-05,0.0,0 STARLINK-3788,1 52271U 22041L   24196.57399570  .00005429  00000-0  35882-3 0  9992,2 52271  53.2179 296.6196 0001353  92.6803 267.4344 15.08848991124533,6917.853,95.437,540.654,538.782,0.0
52271.0,STARLINK-3788,PAYLOAD,2024-07-14 23:18:51,15.08869922,0.0001412,53.2186,294.8353,96.2544,263.8609,0.00088884,0.00013898,0.0,0 STARLINK-3788,1 52271U 22041L   24196.97142822  .00013898  00000-0  88884-3 0  9991,2 52271  53.2186 294.8353 0001412  96.2544 263.8609 15.08869922124591,6917.789,95.436,540.631,538.677,0.0
52271.0,STARLINK-3788,PAYLOAD,2024-07-15 13:37:20,15.08840151,0.000143,53.2166,292.1573,97.3445,262.7709,0.00046177,7.069e-05,0.0,0 STARLINK-3788,1 52271U 22041L   24197.56759583  .00007069  00000-0  46177-3 0  9997,2 52271  53.2166 292.1573 0001430  97.3445 262.7709 15.08840151124688,6917.88,95.438,540.734,538.756,0.0
52271.0,STARLINK-3788,PAYLOAD,2024-07-16 11:52:44,15.08846306,0.0001296,53.2158,287.9911,89.9461,270.168,0.0018028,0.00028525,0.0,0 STARLINK-3788,1 52271U 22041L   24198.49496190  .00028525  00000-0  18028-2 0  9995,2 52271  53.2158 287.9911 0001296  89.9461 270.1680 15.08846306124827,6917.861,95.437,540.623,538.83,0.0
52271.0,STARLINK-3788,PAYLOAD,2024-07-16 13:28:07,15.08849047,0.0001265,53.2155,287.6933,89.2266,270.8871,0.002175,0.00034505,0.0,0 STARLINK-3788,1 52271U 22041L   24198.56120208  .00034505  00000-0  21750-2 0  9998,2 52271  53.2155 287.6933 0001265  89.2266 270.8871 15.08849047123617,6917.853,95.437,540.593,538.843,0.0
52271.0,STARLINK-3788,PAYLOAD,2024-07-17 13:18:54,15.08845503,0.0001434,53.2151,283.2343,147.0813,213.0268,0.00053765,8.28e-05,0.0,0 STARLINK-3788,1 52271U 22041L   24199.55479997  .00008280  00000-0  53765-3 0  9993,2 52271  53.2151 283.2343 0001434 147.0813 213.0268 15.08845503124982,6917.864,95.437,540.721,538.737,0.0
52271.0,STARLINK-3788,PAYLOAD,2024-07-18 05:12:47,15.0883182,0.000149,53.2154,280.2609,87.1768,272.9395,-9.5907e-06,-4.41e-06,0.0,0 STARLINK-3788,1 52271U 22041L   24200.21721320 -.00000441  00000-0 -95907-5 0  9998,2 52271  53.2154 280.2609 0001490  87.1768 272.9395 15.08831820125086,6917.905,95.438,540.801,538.74,0.0
52271.0,STARLINK-3788,PAYLOAD,2024-07-18 11:34:19,15.0883896,0.0001384,53.2149,279.0738,83.6088,276.5061,4.4922e-05,4.27e-06,0.0,0 STARLINK-3788,1 52271U 22041L   24200.48217275  .00000427  00000-0  44922-4 0  9998,2 52271  53.2149 279.0738 0001384  83.6088 276.5061 15.08838960123908,6917.884,95.438,540.706,538.791,0.0
52271.0,STARLINK-3788,PAYLOAD,2024-07-19 05:03:33,15.08847284,0.0001268,53.214,275.8014,93.0046,267.1091,0.00043996,6.722e-05,0.0,0 STARLINK-3788,1 52271U 22041L   24201.21080717  .00006722  00000-0  43996-3 0  9992,2 52271  53.2140 275.8014 0001268  93.0046 267.1091 15.08847284125236,6917.858,95.437,540.6,538.846,0.0
52271.0,STARLINK-3788,PAYLOAD,2024-07-19 11:25:06,15.08846412,0.0001367,53.214,274.61,87.4284,272.6865,0.00048299,7.409e-05,0.0,0 STARLINK-3788,1 52271U 22041L   24201.47576815  .00007409  00000-0  48299-3 0  9993,2 52271  53.2140 274.6100 0001367  87.4284 272.6865 15.08846412124051,6917.861,95.437,540.671,538.78,0.0
52271.0,STARLINK-3788,PAYLOAD,2024-07-19 22:32:47,15.08854255,0.0001527,53.2165,272.5287,93.4355,266.6812,0.00045521,6.967e-05,0.0,0 STARLINK-3788,1 52271U 22041L   24201.93944390  .00006967  00000-0  45521-3 0  9994,2 52271  53.2165 272.5287 0001527  93.4355 266.6812 15.08854255124122,6917.837,95.437,540.758,538.645,0.0
52271.0,STARLINK-3788,PAYLOAD,2024-07-20 11:15:53,15.08844814,0.0001629,53.2144,270.1498,97.113,263.0047,0.00016175,2.287e-05,0.0,0 STARLINK-3788,1 52271U 22041L   24202.46936596  .00002287  00000-0  16175-3 0  9996,2 52271  53.2144 270.1498 0001629  97.1130 263.0047 15.08844814125427,6917.866,95.437,540.858,538.604,0.0
52271.0,STARLINK-3788,PAYLOAD,2024-07-21 11:06:40,15.08837066,0.0001481,53.2161,265.6891,100.9537,259.1622,1.002e-05,-1.29e-06,0.0,0 STARLINK-3788,1 52271U 22041L   24203.46296869 -.00000129  00000-0  10020-4 0  9997,2 52271  53.2161 265.6891 0001481 100.9537 259.1622 15.08837066125574,6917.889,95.438,540.779,538.73,0.0
52271.0,STARLINK-3788,PAYLOAD,2024-07-22 09:22:04,15.08837485,0.0001491,53.2156,261.5257,103.1156,257.0002,0.00013872,1.92e-05,0.0,0 STARLINK-3788,1 52271U 22041L   24204.39033141  .00001920  00000-0  13872-3 0  9998,2 52271  53.2156 261.5257 0001491 103.1156 257.0002 15.08837485124496,6917.888,95.438,540.785,538.722,0.0
52271.0,STARLINK-3788,PAYLOAD,2024-07-23 10:48:14,15.08841485,0.0001356,53.2148,256.7687,92.1535,267.9612,0.00018365,2.636e-05,0.0,0 STARLINK-3788,1 52271U 22041L   24205.45017116  .00002636  00000-0  18365-3 0  9997,2 52271  53.2148 256.7687 0001356  92.1535 267.9612 15.08841485125873,6917.876,95.437,540.679,538.803,0.0
52271.0,STARLINK-3788,PAYLOAD,2024-07-24 12:14:25,15.08840624,0.0001328,53.2141,252.0112,91.4733,268.6411,0.00010209,1.337e-05,0.0,0 STARLINK-3788,1 52271U 22041L   24206.51001227  .00001337  00000-0  10209-3 0  9997,2 52271  53.2141 252.0112 0001328  91.4733 268.6411 15.08840624126037,6917.878,95.438,540.662,538.825,0.0
52271.0,STARLINK-3788,PAYLOAD,2024-07-25 02:32:53,15.08842098,0.0001287,53.2138,249.3348,91.7666,268.3474,0.00013093,1.797e-05,0.0,0 STARLINK-3788,1 52271U 22041L   24207.10617141  .00001797  00000-0  13093-3 0  9995,2 52271  53.2138 249.3348 0001287  91.7666 268.3474 15.08842098124902,6917.874,95.437,540.629,538.849,0.0
52271.0,STARLINK-3788,PAYLOAD,2024-07-25 10:29:48,15.0884442,0.0001337,53.2141,247.8477,91.7642,268.3504,0.00015051,2.109e-05,0.0,0 STARLINK-3788,1 52271U 22041L   24207.43737044  .00002109  00000-0  15051-3 0  9990,2 52271  53.2141 247.8477 0001337  91.7642 268.3504 15.08844420124952,6917.867,95.437,540.657,538.807,0.0
52271.0,STARLINK-3788,PAYLOAD,2024-07-26 02:23:40,15.08845533,0.0001451,53.2144,244.8736,83.8266,276.2891,0.00015731,2.217e-05,0.0,0 STARLINK-3788,1 52271U 22041L   24208.09976911  .00002217  00000-0  15731-3 0  9996,2 52271  53.2144 244.8736 0001451  83.8266 276.2891 15.08845533126271,6917.863,95.437,540.732,538.725,0.0
52271.0,STARLINK-3788,PAYLOAD,2024-07-26 08:45:12,15.0884482,0.0001396,53.214,243.683,96.5543,263.5608,0.00014445,2.012e-05,0.0,0 STARLINK-3788,1 52271U 22041L   24208.36472835  .00002012  00000-0  14445-3 0  9996,2 52271  53.2140 243.6830 0001396  96.5543 263.5608 15.08844820125098,6917.866,95.437,540.696,538.765,0.0
52271.0,STARLINK-3788,PAYLOAD,2024-07-26 19:52:54,15.08848643,0.0001458,53.2144,241.6015,94.0499,266.066,0.00016552,2.348e-05,0.0,0 STARLINK-3788,1 52271U 22041L   24208.82840522  .00002348  00000-0  16552-3 0  9992,2 52271  53.2144 241.6015 0001458  94.0499 266.0660 15.08848643125168,6917.854,95.437,540.728,538.71,0.0
52271.0,STARLINK-3788,PAYLOAD,2024-07-27 05:25:13,15.08841494,0.0001564,53.2149,239.8159,105.4202,254.6963,-2.6601e-05,-7.11e-06,0.0,0 STARLINK-3788,1 52271U 22041L   24209.22584816 -.00000711  00000-0 -26601-4 0  9999,2 52271  53.2149 239.8159 0001564 105.4202 254.6963 15.08841494125221,6917.876,95.437,540.823,538.659,0.0
52271.0,STARLINK-3788,PAYLOAD,2024-07-27 08:35:59,15.08838677,0.0001477,53.216,239.222,102.1157,258.0,-3.0765e-05,-7.78e-06,0.0,0 STARLINK-3788,1 52271U 22041L   24209.35833260 -.00000778  00000-0 -30765-4 0  9992,2 52271  53.2160 239.2220 0001477 102.1157 258.0000 15.08838677126469,6917.884,95.438,540.771,538.728,0.0
52271.0,STARLINK-3788,PAYLOAD,2024-07-28 05:16:01,15.08787963,0.0001429,53.2158,235.3552,128.0583,232.0538,0.00079038,0.00012295,0.0,0 STARLINK-3788,1 52271U 22041L   24210.21946591  .00012295  00000-0  79038-3 0  9991,2 52271  53.2158 235.3552 0001429 128.0583 232.0538 15.08787963126591,6918.039,95.441,540.893,538.916,0.0
